{"type": "FeatureCollection", "features": [ {"type": "Feature", "properties": {"norad_id": 36199, "name": "FENGYUN 1C DEB", "group": "fengyun-1c-debris", "lat": -64.6076361179589, "lon": 32.15534872021166, "alt_km": 826.264015330511, "timestamp": "2025-12-19T10:50:01.488811+00:00", "meta": {"OBJECT_NAME": "FENGYUN 1C DEB", "OBJECT_ID": "1999-025DTY", "EPOCH": "2025-12-18T08:15:57.064608", "MEAN_MOTION": 14.29657674, "ECCENTRICITY": 0.00927225, "INCLINATION": 98.2891, "RA_OF_ASC_NODE": 13.2155, "ARG_OF_PERICENTER": 51.0967, "MEAN_ANOMALY": 309.8439, "EPHEMERIS_TYPE": 0, "CLASSIFICATION_TYPE": "U", "NORAD_CAT_ID": 36199, "ELEMENT_SET_NO": 999, "REV_AT_EPOCH": 65060, "BSTAR": 0.00022092184, "MEAN_MOTION_DOT": 5.52e-06, "MEAN_MOTION_DDOT": 0}, "tle": {"line1": "1 36199U 99025DTY 25352.34441047  .00000552  00000+0  22092-3 0  9996", "line2": "2 36199  98.2891  13.2155 0092722  51.0967 309.8439 14.29657674650608"}}, "geometry": {"type": "Point", "coordinates": [32.15534872021166, -64.6076361179589]}}, {"type": "Feature", "properties": {"norad_id": 36200, "name": "FENGYUN 1C DEB", "group": "fengyun-1c-debris", "lat": 64.30601467627935, "lon": 48.164107279339426, "alt_km": 686.0285453577644, "timestamp": "2025-12-19T10:50:01.488822+00:00", "meta": {"OBJECT_NAME": "FENGYUN 1C DEB", "OBJECT_ID": "1999-025DTZ", "EPOCH": "2025-12-18T11:29:22.430976", "MEAN_MOTION": 14.58881296, "ECCENTRICITY": 0.0033465, "INCLINATION": 99.3865, "RA_OF_ASC_NODE": 67.1748, "ARG_OF_PERICENTER": 349.3047, "MEAN_ANOMALY": 10.7433, "EPHEMERIS_TYPE": 0, "CLASSIFICATION_TYPE": "U", "NORAD_CAT_ID": 36200, "ELEMENT_SET_NO": 999, "REV_AT_EPOCH": 73444, "BSTAR": 0.0036002477, "MEAN_MOTION_DOT": 0.00016973, "MEAN_MOTION_DDOT": 0}, "tle": {"line1": "1 36200U 99025DTZ 25352.47873184  .00016973  00000+0  36002-2 0  9993", "line2": "2 36200  99.3865  67.1748 0033465 349.3047  10.7433 14.58881296734449"}}, "geometry": {"type": "Point", "coordinates": [48.164107279339426, 64.30601467627935]}}, {"type": "Feature", "properties": {"norad_id": 36203, "name": "FENGYUN 1C DEB", "group": "fengyun-1c-debris", "lat": 28.502811590515194, "lon": 123.08250646558666, "alt_km": 578.8581801275341, "timestamp": "2025-12-19T10:50:01.488832+00:00", "meta": {"OBJECT_NAME": "FENGYUN 1C DEB", "OBJECT_ID": "1999-025DUC", "EPOCH": "2025-12-16T02:34:12.047232", "MEAN_MOTION": 14.78467362, "ECCENTRICITY": 0.00836343, "INCLINATION": 99.0958, "RA_OF_ASC_NODE": 294.3166, "ARG_OF_PERICENTER": 138.0502, "MEAN_ANOMALY": 222.7152, "EPHEMERIS_TYPE": 0, "CLASSIFICATION_TYPE": "U", "NORAD_CAT_ID": 36203, "ELEMENT_SET_NO": 999, "REV_AT_EPOCH": 63479, "BSTAR": 0.00071031238, "MEAN_MOTION_DOT": 5.428e-05, "MEAN_MOTION_DDOT": 0}, "tle": {"line1": "1 36203U 99025DUC 25350.10708388  .00005428  00000+0  71031-3 0  9992", "line2": "2 36203  99.0958 294.3166 0083634 138.0502 222.7152 14.78467362634798"}}, "geometry": {"type": "Point", "coordinates": [123.08250646558666, 28.502811590515194]}}, {"type": "Feature", "properties": {"norad_id": 36204, "name": "FENGYUN 1C DEB", "group": "fengyun-1c-debris", "lat": -54.53698614139511, "lon": 104.31856255841228, "alt_km": 796.7624113988786, "timestamp": "2025-12-19T10:50:01.488841+00:00", "meta": {"OBJECT_NAME": "FENGYUN 1C DEB", "OBJECT_ID": "1999-025DUD", "EPOCH": "2025-12-18T13:20:00.059136", "MEAN_MOTION": 14.34614464, "ECCENTRICITY": 0.00199968, "INCLINATION": 99.2911, "RA_OF_ASC_NODE": 90.0697, "ARG_OF_PERICENTER": 146.8615, "MEAN_ANOMALY": 213.3824, "EPHEMERIS_TYPE": 0, "CLASSIFICATION_TYPE": "U", "NORAD_CAT_ID": 36204, "ELEMENT_SET_NO": 999, "REV_AT_EPOCH": 94511, "BSTAR": 0.00093098152, "MEAN_MOTION_DOT": 2.588e-05, "MEAN_MOTION_DDOT": 0}, "tle": {"line1": "1 36204U 99025DUD 25352.55555624  .00002588  00000+0  93098-3 0  9998", "line2": "2 36204  99.2911  90.0697 0019996 146.8615 213.3824 14.34614464945114"}}, "geometry": {"type": "Point", "coordinates": [104.31856255841228, -54.53698614139511]}}, {"type": "Feature", "properties": {"norad_id": 36206, "name": "FENGYUN 1C DEB", "group": "fengyun-1c-debris", "lat": 5.244895642602253, "lon": 15.556694480826549, "alt_km": 800.5145690162544, "timestamp": "2025-12-19T10:50:01.488852+00:00", "meta": {"OBJECT_NAME": "FENGYUN 1C DEB", "OBJECT_ID": "1999-025DUF", "EPOCH": "2025-12-16T08:29:03.735744", "MEAN_MOTION": 14.21592437, "ECCENTRICITY": 0.00302163, "INCLINATION": 98.4786, "RA_OF_ASC_NODE": 13.3653, "ARG_OF_PERICENTER": 8.6843, "MEAN_ANOMALY": 351.4852, "EPHEMERIS_TYPE": 0, "CLASSIFICATION_TYPE": "U", "NORAD_CAT_ID": 36206, "ELEMENT_SET_NO": 999, "REV_AT_EPOCH": 64472, "BSTAR": 0.00060166506, "MEAN_MOTION_DOT": 1.283e-05, "MEAN_MOTION_DDOT": 0}, "tle": {"line1": "1 36206U 99025DUF 25350.35351546  .00001283  00000+0  60167-3 0  9995", "line2": "2 36206  98.4786  13.3653 0030216   8.6843 351.4852 14.21592437644722"}}, "geometry": {"type": "Point", "coordinates": [15.556694480826549, 5.244895642602253]}}, {"type": "Feature", "properties": {"norad_id": 36211, "name": "FENGYUN 1C DEB", "group": "fengyun-1c-debris", "lat": -71.78807122067502, "lon": 139.37836111479305, "alt_km": 673.5619574818311, "timestamp": "2025-12-19T10:50:01.488862+00:00", "meta": {"OBJECT_NAME": "FENGYUN 1C DEB", "OBJECT_ID": "1999-025DUL", "EPOCH": "2025-12-18T20:10:39.792576", "MEAN_MOTION": 14.26010505, "ECCENTRICITY": 0.0266827, "INCLINATION": 98.5043, "RA_OF_ASC_NODE": 345.8346, "ARG_OF_PERICENTER": 210.9186, "MEAN_ANOMALY": 147.6049, "EPHEMERIS_TYPE": 0, "CLASSIFICATION_TYPE": "U", "NORAD_CAT_ID": 36211, "ELEMENT_SET_NO": 999, "REV_AT_EPOCH": 94456, "BSTAR": 0.00031120509, "MEAN_MOTION_DOT": 1.029e-05, "MEAN_MOTION_DDOT": 0}, "tle": {"line1": "1 36211U 99025DUL 25352.84073834  .00001029  00000+0  31121-3 0  9994", "line2": "2 36211  98.5043 345.8346 0266827 210.9186 147.6049 14.26010505944568"}}, "geometry": {"type": "Point", "coordinates": [139.37836111479305, -71.78807122067502]}}, {"type": "Feature", "properties": {"norad_id": 36216, "name": "FENGYUN 1C DEB", "group": "fengyun-1c-debris", "lat": 81.334596135869, "lon": -82.91490935864722, "alt_km": 822.8851316434184, "timestamp": "2025-12-19T10:50:01.488871+00:00", "meta": {"OBJECT_NAME": "FENGYUN 1C DEB", "OBJECT_ID": "1999-025DUR", "EPOCH": "2025-12-17T07:38:09.186432", "MEAN_MOTION": 14.18864688, "ECCENTRICITY": 0.00447181, "INCLINATION": 98.6072, "RA_OF_ASC_NODE": 11.3911, "ARG_OF_PERICENTER": 4.7845, "MEAN_ANOMALY": 355.375, "EPHEMERIS_TYPE": 0, "CLASSIFICATION_TYPE": "U", "NORAD_CAT_ID": 36216, "ELEMENT_SET_NO": 999, "REV_AT_EPOCH": 64437, "BSTAR": 0.0003394001, "MEAN_MOTION_DOT": 6.71e-06, "MEAN_MOTION_DDOT": 0}, "tle": {"line1": "1 36216U 99025DUR 25351.31816188  .00000671  00000+0  33940-3 0  9990", "line2": "2 36216  98.6072  11.3911 0044718   4.7845 355.3750 14.18864688644376"}}, "geometry": {"type": "Point", "coordinates": [-82.91490935864722, 81.334596135869]}}, {"type": "Feature", "properties": {"norad_id": 36218, "name": "FENGYUN 1C DEB", "group": "fengyun-1c-debris", "lat": 8.261581415535886, "lon": 16.54833956367841, "alt_km": 670.945685396744, "timestamp": "2025-12-19T10:50:01.488882+00:00", "meta": {"OBJECT_NAME": "FENGYUN 1C DEB", "OBJECT_ID": "1999-025DUT", "EPOCH": "2025-12-17T00:54:51.143616", "MEAN_MOTION": 14.71047478, "ECCENTRICITY": 0.00725997, "INCLINATION": 99.075, "RA_OF_ASC_NODE": 192.5323, "ARG_OF_PERICENTER": 282.3708, "MEAN_ANOMALY": 76.9376, "EPHEMERIS_TYPE": 0, "CLASSIFICATION_TYPE": "U", "NORAD_CAT_ID": 36218, "ELEMENT_SET_NO": 999, "REV_AT_EPOCH": 59206, "BSTAR": 0.00093044583, "MEAN_MOTION_DOT": 5.892e-05, "MEAN_MOTION_DDOT": 0}, "tle": {"line1": "1 36218U 99025DUT 25351.03809194  .00005892  00000+0  93045-3 0  9992", "line2": "2 36218  99.0750 192.5323 0072599 282.3708  76.9376 14.71047478592062"}}, "geometry": {"type": "Point", "coordinates": [16.54833956367841, 8.261581415535886]}}, {"type": "Feature", "properties": {"norad_id": 36224, "name": "FENGYUN 1C DEB", "group": "fengyun-1c-debris", "lat": 1.0491733178918532, "lon": -139.18047986619538, "alt_km": 926.8377788079415, "timestamp": "2025-12-19T10:50:01.488902+00:00", "meta": {"OBJECT_NAME": "FENGYUN 1C DEB", "OBJECT_ID": "1999-025DUZ", "EPOCH": "2025-12-17T22:17:24.802656", "MEAN_MOTION": 14.12764944, "ECCENTRICITY": 0.01143272, "INCLINATION": 98.7795, "RA_OF_ASC_NODE": 39.1646, "ARG_OF_PERICENTER": 337.2178, "MEAN_ANOMALY": 22.3944, "EPHEMERIS_TYPE": 0, "CLASSIFICATION_TYPE": "U", "NORAD_CAT_ID": 36224, "ELEMENT_SET_NO": 999, "REV_AT_EPOCH": 64505, "BSTAR": 0.00011222511, "MEAN_MOTION_DOT": 1.78e-06, "MEAN_MOTION_DDOT": 0}, "tle": {"line1": "1 36224U 99025DUZ 25351.92875929  .00000178  00000+0  11223-3 0  9996", "line2": "2 36224  98.7795  39.1646 0114327 337.2178  22.3944 14.12764944645058"}}, "geometry": {"type": "Point", "coordinates": [-139.18047986619538, 1.0491733178918532]}}, {"type": "Feature", "properties": {"norad_id": 36225, "name": "FENGYUN 1C DEB", "group": "fengyun-1c-debris", "lat": 37.66291730263419, "lon": 108.9345548197587, "alt_km": 562.8351575506185, "timestamp": "2025-12-19T10:50:01.488914+00:00", "meta": {"OBJECT_NAME": "FENGYUN 1C DEB", "OBJECT_ID": "1999-025DVA", "EPOCH": "2025-12-17T14:01:45.492384", "MEAN_MOTION": 15.06406553, "ECCENTRICITY": 0.0043453, "INCLINATION": 98.8172, "RA_OF_ASC_NODE": 113.6813, "ARG_OF_PERICENTER": 275.7736, "MEAN_ANOMALY": 83.8534, "EPHEMERIS_TYPE": 0, "CLASSIFICATION_TYPE": "U", "NORAD_CAT_ID": 36225, "ELEMENT_SET_NO": 999, "REV_AT_EPOCH": 66845, "BSTAR": 0.001928912, "MEAN_MOTION_DOT": 0.00029057, "MEAN_MOTION_DDOT": 0}, "tle": {"line1": "1 36225U 99025DVA 25351.58455431  .00029057  00000+0  19289-2 0  9997", "line2": "2 36225  98.8172 113.6813 0043453 275.7736  83.8534 15.06406553668459"}}, "geometry": {"type": "Point", "coordinates": [108.9345548197587, 37.66291730263419]}}]}